 2018  718 1333 18.8 L  51.158  -0.239  1.0F BGS 15 0.8 2.4LBGS                1
 GAP=113        1.59       2.7     3.0  0.0 -0.4407E+01  0.0000E+00  0.0000E+00E
 ACTION:UP  18-10-29 12:33 OP:rrl  STATUS:               ID:20180718133338     I
                            4 EMS   0.00    0.00 0.0                           2
 XNEAR  100.0 XFAR  300.0 SDEP  15.0                                           3
 NEWDIGATE,SURREY         4                                                   23
 STAT SP IPHASW D HRMM SECON CODA AMPLIT PERI AZIMU VELO SNR AR TRES W  DIS CAZ7
 RUSH HZ IP     C 1333 19.10                             104   -0.7110 2.33 241 
 RUSH HN ES       1333 19.72                             104   -0.8510 2.33 241 
 RUSH HN  IAML    1333 19.93     26053.4 0.29                          2.33 241 
 RUSH HE  IAML    1333 20.11     37150.2 0.29                          2.33 241 
 HORS HZ IP     C 1333 19.58                             100   -0.4610 2.90  46 
 HORS HE ES       1333 20.39                             100   -0.5610 2.90  46 
 HORS HN  IAML    1333 20.85     26518.3 0.20                          2.90  46 
 HORS HE  IAML    1333 20.95     11551.4 0.22                          2.90  46 
 REC60SZ IP     D 1333 20.15                              27   -1.4010 8.69 313 
 RCC45EZ EP       1333 24.15                              27   -0.3610 26.2  25 
 RAEBEEZ EP       1333 24.04                              27   -0.6710 27.5 318 
 RAEBEEE ES       1333 28.67                              27   -0.3710 27.5 318 
 HMNX HZ EP       1333 28.44                              25   -0.3510 51.7 128 
 HMNX HN ES       1333 36.43                              25    0.3310 51.7 128 
 HMNX HN  IAML    1333 38.10       331.7 0.37                          51.7 128 
 HMNX HE  IAML    1333 40.20       500.1 0.56                          51.7 128 
 WOL  BZ EP       1333 32.09                              25    0.2810 70.8 284 
 WOL  BE ES       1333 43.11                              25    1.7910 70.8 284 
 ELSH HZ EP       1333 36.64                              25    0.9210 96.1  90 
 ELSH HN  IAML    1333 54.15        87.5 0.49                          96.1  90 
 ELSH HE  IAML    1334  0.57       165.7 0.59                          96.1  90 
 SWN1 HZ EP       1333 39.94                              25    1.15 9  116 291 
 SWN1 HE ES       1333 53.58                              25    0.18 9  116 291 
 SWN1 HE  IAML    1333 57.78        98.9 0.36                           116 291 
 SWN1 HN  IAML    1334 10.04       180.1 0.51                           116 291 
 ELMS HZ EP       1333 42.29                              23    0.68 8  134  39 
 ELMS HE ES       1333 57.90                              23   -0.38 8  134  39 
 ELMS HN  IAML    1334  0.23       144.9 0.40                           134  39 
 ELMS HE  IAML    1334  0.72       142.5 0.33                           134  39 
 WACR HZ EP       1333 49.68                              20    1.16 6  184  19 
 WACR HN ES       1334 11.25                              20    1.02 6  184  19 
 WACR HN  IAML    1334 14.10       115.9 0.26                           184  19 
 WACR HE  IAML    1334 18.59        97.6 0.33                           184  19 
 MONM HZ EP       1333 50.09                              20    0.36 5  194 294 
 MONM HN ES       1334 12.46                              20    0.14 5  194 294 
 MCH1 HZ EP       1333 52.85                              20    0.68 4  213 297 
 MCH1 HN ES       1334 16.75                              20    0.21 4  213 297 
 HLM1 HZ EP       1333 54.52                              20   -0.73 3  237 311 
 HLM1 HN ES       1334 23.00                              20    1.13 3  237 311 
 FOEL HZ EP       1334  0.50                              20   -0.16 1  280 315 
                                                                                
